STARLINK-3100           
1 49144U 21082Q   26068.96848669 -.00000453  00000+0 -30178-4 0  9999
2 49144  69.9982 293.7423 0002748 269.0008  91.0837 14.98327643246022
ICEYE-X40               
1 60549U 24149CK  26068.75921700  .00003253  00000+0  28352-3 0  9992
2 60549  97.6865 146.8579 0005983  65.2061 294.9783 14.97556326 85195
